[{"OBJECT_NAME":"GEESAT-5 01","OBJECT_ID":"2025-201A","EPOCH":"2026-03-09T16:09:44.414208","MEAN_MOTION":14.83771108,"ECCENTRICITY":0.00031214,"INCLINATION":49.9903,"RA_OF_ASC_NODE":141.1054,"ARG_OF_PERICENTER":18.6634,"MEAN_ANOMALY":341.4418,"EPHEMERIS_TYPE":0,"CLASSIFICATION_TYPE":"U","NORAD_CAT_ID":65550,"ELEMENT_SET_NO":999,"REV_AT_EPOCH":2702,"BSTAR":0.00034504263,"MEAN_MOTION_DOT":2.662e-5,"MEAN_MOTION_DDOT":0},{"OBJECT_NAME":"NOAA 16 DEB","OBJECT_ID":"2000-055CW","EPOCH":"2026-03-07T07:19:51.843360","MEAN_MOTION":14.8431285,"ECCENTRICITY":0.0024489,"INCLINATION":99.0144,"RA_OF_ASC_NODE":13.4315,"ARG_OF_PERICENTER":245.2612,"MEAN_ANOMALY":114.605,"EPHEMERIS_TYPE":0,"CLASSIFICATION_TYPE":"U","NORAD_CAT_ID":41163,"ELEMENT_SET_NO":999,"REV_AT_EPOCH":53806,"BSTAR":0.0082493,"MEAN_MOTION_DOT":0.00070186,"MEAN_MOTION_DDOT":0}]
